NSS-11 (AAP-1)          
1 26554U 00059A   21275.24575144  .00000023  00000-0  00000-0 0  9990
2 26554   0.0339  63.0223 0002718 152.3840  60.2680  1.00272728 24069
USA 153                 
1 26575U 00065A   21275.45238824 -.00000320  00000-0  00000+0 0  9994
2 26575   8.6666  47.2258 0001232 115.3979 146.0220  1.00275978 14379
AMC-6 (GE-6)            
1 26580U 00067A   21275.22847050  .00000102  00000-0  00000-0 0  9992
2 26580   0.0343  62.9048 0002687 129.7668 121.7634  1.00272874 76686
INTELSAT 12 (IS-12)     
1 26590U 00068A   21275.15941167  .00000012  00000-0  00000-0 0  9990
2 26590   4.0444  82.0015 0002420  92.5013 318.2574  1.00272426 34476
INTELSAT 1R (IS-1R)     
1 26608U 00072A   21275.22975047 -.00000138  00000-0  00000-0 0  9997
2 26608   3.8133  82.9829 0000767 225.4275 302.5747  1.00272028 24081
ANIK F1                 
1 26624U 00076A   21275.24584656 -.00000064  00000-0  00000-0 0  9991
2 26624   0.7829  95.8034 0007516  56.6160 198.0893  1.00271990 25903
ASTRA 2D                
1 26638U 00081A   21275.21529854  .00000124  00000-0  00000+0 0  9993
2 26638   6.7494  61.9667 0004749 170.0802 240.9099  1.00165443 76150
AMC-8 (GE-8)            
1 26639U 00081B   21275.50097334  .00000086  00000-0  00000+0 0  9996
2 26639   1.8002  91.2519 0002625 103.6067 221.9437  1.00272438 76046
NAVSTAR 50 (USA 156)    
1 26690U 01004A   21275.21409713  .00000047  00000-0  00000-0 0  9993
2 26690  53.7543  96.3121 0000219  10.7949 197.6395  1.91595448150604
ODIN                    
1 26702U 01007A   21275.06819796  .00001280  00000-0  85594-4 0  9994
2 26702  97.5356 289.6488 0012279  94.5608 265.7024 15.08678803127307
USA 157 (MILSTAR-2 2)   
1 26715U 01009A   21275.04516517  .00000018  00000-0  00000-0 0  9996
2 26715   9.7672  28.3150 0002597 181.4792  53.1467  1.00273137 15712
EUTELSAT 133 WEST A     
1 26719U 01011A   21275.23233102  .00000077  00000-0  00000-0 0  9995
2 26719   3.0784  85.1005 0002769 110.5757 126.2993  1.00270538 75301
BSAT-2A                 
1 26720U 01011B   21275.21927494  .00000012  00000-0  00000-0 0  9998
2 26720   7.0705  60.5960 0004070 126.7175 107.9093  0.99178630 74928
INTELSAT 10 (IS-10)     
1 26766U 01019A   21275.24675427  .00000036  00000-0  00000-0 0  9991
2 26766   4.9672  75.4654 0003193 138.4505  63.9233  1.00271132 28384
INTELSAT 901 (IS-901)   
1 26824U 01024A   21275.28465689 -.00000205  00000-0  00000+0 0  9991
2 26824   0.0158 140.5052 0000903  61.9226 243.8059  1.00271666 74352
ASTRA 2C                
1 26853U 01025A   21275.47130487 -.00000259  00000-0  00000+0 0  9999
2 26853   3.9403  81.5920 0002580 113.3990 273.6558  1.00270992 74345
ICO F2                  
1 26857U 01026A   21274.09910132 -.00000002  00000-0  00000-0 0  9991
2 26857  44.8785 281.2027 0015347 341.1567  18.8232  3.92403500138063
USA 159 (DSP 21)        
1 26880U 01033A   21274.91461476 -.00000291  00000-0  00000-0 0  9998
2 26880  11.1927  27.3503 0001965 222.6893  41.0126  1.00276480 15727
INTELSAT 902 (IS-902)   
1 26900U 01039A   21275.28110326 -.00000284  00000-0  00000+0 0  9994
2 26900   1.7581  91.7610 0003069 103.5061 227.0714  1.00271383 73535
PCSAT (NO-44)           
1 26931U 01043C   21275.48998833 -.00000021  00000-0  23669-4 0  9992
2 26931  67.0536   4.1962 0005491 270.4717  89.5755 14.30634578 44669
PROBA-1                 
1 26958U 01049B   21275.38461004  .00001007  00000-0  90871-4 0  9994
2 26958  97.7821 231.1239 0073736 124.1651 236.6557 14.95780468 85899
BIRD 2                  
1 26959U 01049C   21274.95028340  .00005451  00000-0  14039-3 0  9997
2 26959  97.7859 345.2030 0006923 206.7352 153.3537 15.39671485413363
TIMED                   
1 26998U 01055B   21275.15208289  .00000289  00000-0  35251-4 0  9996
2 26998  74.0715  74.0748 0001245 328.0368  32.0737 14.88353036 74578
MAROC-TUBSAT            
1 27004U 01056D   21275.19602175 -.00000030  00000-0  16666-4 0  9996
2 27004  99.5876  51.1150 0019171 236.8294 246.5154 13.70148901990778
COSMOS 2385             
1 27056U 01058B   21275.18907726  .00000018  00000-0  41144-4 0  9998
2 27056  82.5352 239.1288 0006190 137.6624 222.4961 12.60514234909366
COSMOS 2386             
1 27057U 01058C   21275.16046586  .00000018  00000-0  44933-4 0  9994
2 27057  82.5423 234.6048 0001779  46.2328 313.8932 12.61560766910091
USA 164 (MILSTAR-2 3)   
1 27168U 02001A   21275.04563545  .00000105  00000-0  00000+0 0  9991
2 27168   9.2393  30.0262 0002250 181.7758 194.6038  1.00275487 14416
RHESSI                  
1 27370U 02004A   21275.08949906  .00009549  00000-0  26948-3 0  9996
2 27370  38.0322 162.6883 0012668 243.3524 116.5950 15.35934050 86791
ECHOSTAR 7              
1 27378U 02006A   21275.24028917 -.00000003  00000-0  00000-0 0  9999
2 27378   0.0304  68.6953 0002156  75.9703 194.2233  1.00271612 33367
INTELSAT 904 (IS-904)   
1 27380U 02007A   21275.28430802 -.00000215  00000-0  00000+0 0  9991
2 27380   2.5915  88.5996 0002852 106.7186 248.7674  1.00270484 71850
TDRS 9                  
1 27389U 02011A   21275.47764417 -.00000283  00000-0  00000+0 0  9993
2 27389   8.4727  63.1306 0022577 286.2383 131.5477  1.00279031 73206
