OBJECT_NAME,OBJECT_ID,EPOCH,MEAN_MOTION,ECCENTRICITY,INCLINATION,RA_OF_ASC_NODE,ARG_OF_PERICENTER,MEAN_ANOMALY,EPHEMERIS_TYPE,CLASSIFICATION_TYPE,NORAD_CAT_ID,ELEMENT_SET_NO,REV_AT_EPOCH,BSTAR,MEAN_MOTION_DOT,MEAN_MOTION_DDOT
NSS-11 (AAP-1),2000-059A,2021-10-02T05:53:52.924416,1.00272728,.0002718,0.0339,63.0223,152.3840,60.2680,0,U,26554,999,2406,0,.23E-6,0
USA 153,2000-065A,2021-10-02T10:51:26.343936,1.00275978,.0001232,8.6666,47.2258,115.3979,146.0220,0,U,26575,999,1437,0,-.32E-5,0
AMC-6 (GE-6),2000-067A,2021-10-02T05:28:59.851200,1.00272874,.0002687,0.0343,62.9048,129.7668,121.7634,0,U,26580,999,7668,0,.102E-5,0
INTELSAT 12 (IS-12),2000-068A,2021-10-02T03:49:33.168288,1.00272426,.000242,4.0444,82.0015,92.5013,318.2574,0,U,26590,999,3447,0,.12E-6,0
INTELSAT 1R (IS-1R),2000-072A,2021-10-02T05:30:50.440608,1.00272028,.0000767,3.8133,82.9829,225.4275,302.5747,0,U,26608,999,2408,0,-.138E-5,0
ANIK F1,2000-076A,2021-10-02T05:54:01.142784,1.00271990,.0007516,0.7829,95.8034,56.6160,198.0893,0,U,26624,999,2590,0,-.64E-6,0
ASTRA 2D,2000-081A,2021-10-02T05:10:01.793856,1.00165443,.0004749,6.7494,61.9667,170.0802,240.9099,0,U,26638,999,7615,0,.124E-5,0
AMC-8 (GE-8),2000-081B,2021-10-02T12:01:24.096576,1.00272438,.0002625,1.8002,91.2519,103.6067,221.9437,0,U,26639,999,7604,0,.86E-6,0
NAVSTAR 50 (USA 156),2001-004A,2021-10-02T05:08:17.992032,1.91595448,.0000219,53.7543,96.3121,10.7949,197.6395,0,U,26690,999,15060,0,.47E-6,0
ODIN,2001-007A,2021-10-02T01:38:12.303744,15.08678803,.0012279,97.5356,289.6488,94.5608,265.7024,0,U,26702,999,12730,.85594E-4,.128E-4,0
USA 157 (MILSTAR-2 2),2001-009A,2021-10-02T01:05:02.270688,1.00273137,.0002597,9.7672,28.3150,181.4792,53.1467,0,U,26715,999,1571,0,.18E-6,0
EUTELSAT 133 WEST A,2001-011A,2021-10-02T05:34:33.400128,1.00270538,.0002769,3.0784,85.1005,110.5757,126.2993,0,U,26719,999,7530,0,.77E-6,0
BSAT-2A,2001-011B,2021-10-02T05:15:45.354816,0.99178630,.000407,7.0705,60.5960,126.7175,107.9093,0,U,26720,999,7492,0,.12E-6,0
INTELSAT 10 (IS-10),2001-019A,2021-10-02T05:55:19.568928,1.00271132,.0003193,4.9672,75.4654,138.4505,63.9233,0,U,26766,999,2838,0,.36E-6,0
INTELSAT 901 (IS-901),2001-024A,2021-10-02T06:49:54.355296,1.00271666,.0000903,0.0158,140.5052,61.9226,243.8059,0,U,26824,999,7435,0,-.205E-5,0
ASTRA 2C,2001-025A,2021-10-02T11:18:40.740768,1.00270992,.000258,3.9403,81.5920,113.3990,273.6558,0,U,26853,999,7434,0,-.259E-5,0
ICO F2,2001-026A,2021-10-01T02:22:42.354048,3.92403500,.0015347,44.8785,281.2027,341.1567,18.8232,0,U,26857,999,13806,0,-.2E-7,0
USA 159 (DSP 21),2001-033A,2021-10-01T21:57:02.715264,1.00276480,.0001965,11.1927,27.3503,222.6893,41.0126,0,U,26880,999,1572,0,-.291E-5,0
INTELSAT 902 (IS-902),2001-039A,2021-10-02T06:44:47.321664,1.00271383,.0003069,1.7581,91.7610,103.5061,227.0714,0,U,26900,999,7353,0,-.284E-5,0
PCSAT (NO-44),2001-043C,2021-10-02T11:45:34.991712,14.30634578,.0005491,67.0536,4.1962,270.4717,89.5755,0,U,26931,999,4466,.23669E-4,-.21E-6,0
PROBA-1,2001-049B,2021-10-02T09:13:50.307456,14.95780468,.0073736,97.7821,231.1239,124.1651,236.6557,0,U,26958,999,8589,.90871E-4,.1007E-4,0
BIRD 2,2001-049C,2021-10-01T22:48:24.485760,15.39671485,.0006923,97.7859,345.2030,206.7352,153.3537,0,U,26959,999,41336,.14039E-3,.5451E-4,0
TIMED,2001-055B,2021-10-02T03:38:59.961696,14.88353036,.0001245,74.0715,74.0748,328.0368,32.0737,0,U,26998,999,7457,.35251E-4,.289E-5,0
MAROC-TUBSAT,2001-056D,2021-10-02T04:42:16.279200,13.70148901,.0019171,99.5876,51.1150,236.8294,246.5154,0,U,27004,999,99077,.16666E-4,-.3E-6,0
COSMOS 2385,2001-058B,2021-10-02T04:32:16.275264,12.60514234,.000619,82.5352,239.1288,137.6624,222.4961,0,U,27056,999,90936,.41144E-4,.18E-6,0
COSMOS 2386,2001-058C,2021-10-02T03:51:04.250304,12.61560766,.0001779,82.5423,234.6048,46.2328,313.8932,0,U,27057,999,91009,.44933E-4,.18E-6,0
USA 164 (MILSTAR-2 3),2002-001A,2021-10-02T01:05:42.902880,1.00275487,.000225,9.2393,30.0262,181.7758,194.6038,0,U,27168,999,1441,0,.105E-5,0
RHESSI,2002-004A,2021-10-02T02:08:52.718784,15.35934050,.0012668,38.0322,162.6883,243.3524,116.5950,0,U,27370,999,8679,.26948E-3,.9549E-4,0
ECHOSTAR 7,2002-006A,2021-10-02T05:46:00.984288,1.00271612,.0002156,0.0304,68.6953,75.9703,194.2233,0,U,27378,999,3336,0,-.3E-7,0
INTELSAT 904 (IS-904),2002-007A,2021-10-02T06:49:24.212928,1.00270484,.0002852,2.5915,88.5996,106.7186,248.7674,0,U,27380,999,7185,0,-.215E-5,0
TDRS 9,2002-011A,2021-10-02T11:27:48.456288,1.00279031,.0022577,8.4727,63.1306,286.2383,131.5477,0,U,27389,999,7320,0,-.283E-5,0
